sat14819
1 14819U 84027A   20046.79783204  .00000718  00000-0  25122-4 0  9998
2 14819  82.4839 127.5927 0013003 202.8639 157.2023 15.27753570964145
